{
  "type": "FeatureCollection",
  "features": [
    {
      "type": "Feature",
      "properties": {
        "norad_id": 37781,
        "name": "HAIYANG-2A",
        "group": "resource",
        "lat": 76.10762015089094,
        "lon": -63.04606017200603,
        "alt_km": 959.620695973571,
        "timestamp": "2025-12-03T13:52:09.222043+00:00",
        "meta_object_name": "HAIYANG-2A",
        "meta_object_id": "2011-043A",
        "meta_epoch": "2025-12-03T06:31:05.630880",
        "meta_mean_motion": 13.78834162,
        "meta_eccentricity": 0.0001644,
        "meta_inclination": 99.3377,
        "meta_ra_of_asc_node": 338.352,
        "meta_arg_of_pericenter": 96.9333,
        "meta_mean_anomaly": 263.2005,
        "meta_ephemeris_type": 0,
        "meta_classification_type": "U",
        "meta_norad_cat_id": 37781,
        "meta_element_set_no": 999,
        "meta_rev_at_epoch": 71968,
        "meta_bstar": 6.2792901e-05,
        "meta_mean_motion_dot": 2e-07,
        "meta_mean_motion_ddot": 0,
        "tle_line1": "1 37781U 11043A   25337.27159295  .00000020  00000+0  62793-4 0  9997",
        "tle_line2": "2 37781  99.3377 338.3520 0001644  96.9333 263.2005 13.78834162719680"
      },
      "geometry": {
        "type": "Point",
        "coordinates": [
          -63.04606017200603,
          76.10762015089094
        ]
      }
    },
    {
      "type": "Feature",
      "properties": {
        "norad_id": 37791,
        "name": "RASAT",
        "group": "resource",
        "lat": 35.666187237269945,
        "lon": -107.18734990604594,
        "alt_km": 655.6875565308819,
        "timestamp": "2025-12-03T13:52:09.222075+00:00",
        "meta_object_name": "RASAT",
        "meta_object_id": "2011-044D",
        "meta_epoch": "2025-12-03T08:29:56.842368",
        "meta_mean_motion": 14.67887753,
        "meta_eccentricity": 0.00219645,
        "meta_inclination": 98.0656,
        "meta_ra_of_asc_node": 66.7512,
        "meta_arg_of_pericenter": 93.2809,
        "meta_mean_anomaly": 308.655,
        "meta_ephemeris_type": 0,
        "meta_classification_type": "U",
        "meta_norad_cat_id": 37791,
        "meta_element_set_no": 999,
        "meta_rev_at_epoch": 76445,
        "meta_bstar": 0.0001857483,
        "meta_mean_motion_dot": 1.017e-05,
        "meta_mean_motion_ddot": 0,
        "tle_line1": "1 37791U 11044D   25337.35413012  .00001017  00000+0  18575-3 0  9993",
        "tle_line2": "2 37791  98.0656  66.7512 0021964  93.2809 308.6550 14.67887753764452"
      },
      "geometry": {
        "type": "Point",
        "coordinates": [
          -107.18734990604594,
          35.666187237269945
        ]
      }
    },
    {
      "type": "Feature",
      "properties": {
        "norad_id": 37841,
        "name": "SRMSAT",
        "group": "resource",
        "lat": -12.236502390691749,
        "lon": 20.075843499906494,
        "alt_km": 844.9168096903923,
        "timestamp": "2025-12-03T13:52:09.222102+00:00",
        "meta_object_name": "SRMSAT",
        "meta_object_id": "2011-058D",
        "meta_epoch": "2025-12-03T05:06:49.197888",
        "meta_mean_motion": 14.11506204,
        "meta_eccentricity": 0.00117311,
        "meta_inclination": 19.9698,
        "meta_ra_of_asc_node": 165.6115,
        "meta_arg_of_pericenter": 207.8469,
        "meta_mean_anomaly": 312.6999,
        "meta_ephemeris_type": 0,
        "meta_classification_type": "U",
        "meta_norad_cat_id": 37841,
        "meta_element_set_no": 999,
        "meta_rev_at_epoch": 73009,
        "meta_bstar": 0.00012787162,
        "meta_mean_motion_dot": 5.01e-06,
        "meta_mean_motion_ddot": 0,
        "tle_line1": "1 37841U 11058D   25337.21306942  .00000501  00000+0  12787-3 0  9998",
        "tle_line2": "2 37841  19.9698 165.6115 0011731 207.8469 312.6999 14.11506204730093"
      },
      "geometry": {
        "type": "Point",
        "coordinates": [
          20.075843499906494,
          -12.236502390691749
        ]
      }
    },
    {
      "type": "Feature",
      "properties": {
        "norad_id": 38012,
        "name": "PLEIADES 1A",
        "group": "resource",
        "lat": -65.21638712046797,
        "lon": -147.67213789554646,
        "alt_km": 706.053753057111,
        "timestamp": "2025-12-03T13:52:09.222115+00:00",
        "meta_object_name": "PLEIADES 1A",
        "meta_object_id": "2011-076F",
        "meta_epoch": "2025-12-03T08:12:34.720992",
        "meta_mean_motion": 14.58546444,
        "meta_eccentricity": 0.00014074,
        "meta_inclination": 98.1834,
        "meta_ra_of_asc_node": 50.2553,
        "meta_arg_of_pericenter": 81.3506,
        "meta_mean_anomaly": 7.6393,
        "meta_ephemeris_type": 0,
        "meta_classification_type": "U",
        "meta_norad_cat_id": 38012,
        "meta_element_set_no": 999,
        "meta_rev_at_epoch": 74344,
        "meta_bstar": 0.00015255732,
        "meta_mean_motion_dot": 6.64e-06,
        "meta_mean_motion_ddot": 0,
        "tle_line1": "1 38012U 11076F   25337.34206853  .00000664  00000+0  15256-3 0  9997",
        "tle_line2": "2 38012  98.1834  50.2553 0001407  81.3506   7.6393 14.58546444743449"
      },
      "geometry": {
        "type": "Point",
        "coordinates": [
          -147.67213789554646,
          -65.21638712046797
        ]
      }
    },
    {
      "type": "Feature",
      "properties": {
        "norad_id": 38038,
        "name": "ZIYUAN 1-02C (ZY 1-02C)",
        "group": "resource",
        "lat": 67.50604030879911,
        "lon": -115.24240120684662,
        "alt_km": 755.615941571682,
        "timestamp": "2025-12-03T13:52:09.222126+00:00",
        "meta_object_name": "ZIYUAN 1-02C (ZY 1-02C)",
        "meta_object_id": "2011-079A",
        "meta_epoch": "2025-12-03T08:59:27.792672",
        "meta_mean_motion": 14.37995005,
        "meta_eccentricity": 0.00067791,
        "meta_inclination": 98.4346,
        "meta_ra_of_asc_node": 43.5605,
        "meta_arg_of_pericenter": 164.4235,
        "meta_mean_anomaly": 334.9162,
        "meta_ephemeris_type": 0,
        "meta_classification_type": "U",
        "meta_norad_cat_id": 38038,
        "meta_element_set_no": 999,
        "meta_rev_at_epoch": 73106,
        "meta_bstar": 0.00027802353,
        "meta_mean_motion_dot": 7.98e-06,
        "meta_mean_motion_ddot": 0,
        "tle_line1": "1 38038U 11079A   25337.37462723  .00000798  00000+0  27802-3 0  9999",
        "tle_line2": "2 38038  98.4346  43.5605 0006779 164.4235 334.9162 14.37995005731063"
      },
      "geometry": {
        "type": "Point",
        "coordinates": [
          -115.24240120684662,
          67.50604030879911
        ]
      }
    },
    {
      "type": "Feature",
      "properties": {
        "norad_id": 38046,
        "name": "ZIYUAN 3-1 (ZY 3-1)",
        "group": "resource",
        "lat": -43.744538033497065,
        "lon": 50.720965378185156,
        "alt_km": 374.4959727436162,
        "timestamp": "2025-12-03T13:52:09.222138+00:00",
        "meta_object_name": "ZIYUAN 3-1 (ZY 3-1)",
        "meta_object_id": "2012-001A",
        "meta_epoch": "2025-12-03T07:55:33.833280",
        "meta_mean_motion": 15.66752014,
        "meta_eccentricity": 0.00022023,
        "meta_inclination": 97.1779,
        "meta_ra_of_asc_node": 43.54,
        "meta_arg_of_pericenter": 32.5738,
        "meta_mean_anomaly": 327.5658,
        "meta_ephemeris_type": 0,
        "meta_classification_type": "U",
        "meta_norad_cat_id": 38046,
        "meta_element_set_no": 999,
        "meta_rev_at_epoch": 77349,
        "meta_bstar": 0.00073564444,
        "meta_mean_motion_dot": 0.00077816,
        "meta_mean_motion_ddot": 0,
        "tle_line1": "1 38046U 12001A   25337.33025270  .00077816  00000+0  73564-3 0  9993",
        "tle_line2": "2 38046  97.1779  43.5400 0002202  32.5738 327.5658 15.66752014773496"
      },
      "geometry": {
        "type": "Point",
        "coordinates": [
          50.720965378185156,
          -43.744538033497065
        ]
      }
    },
    {
      "type": "Feature",
      "properties": {
        "norad_id": 38338,
        "name": "ARIRANG-3 (KOMPSAT-3)",
        "group": "resource",
        "lat": 39.50979934781937,
        "lon": -74.84114080947047,
        "alt_km": 681.0859707918116,
        "timestamp": "2025-12-03T13:52:09.222149+00:00",
        "meta_object_name": "ARIRANG-3 (KOMPSAT-3)",
        "meta_object_id": "2012-025B",
        "meta_epoch": "2025-12-03T08:45:29.749824",
        "meta_mean_motion": 14.61691922,
        "meta_eccentricity": 0.00060258,
        "meta_inclination": 98.3308,
        "meta_ra_of_asc_node": 291.8845,
        "meta_arg_of_pericenter": 8.3029,
        "meta_mean_anomaly": 351.827,
        "meta_ephemeris_type": 0,
        "meta_classification_type": "U",
        "meta_norad_cat_id": 38338,
        "meta_element_set_no": 999,
        "meta_rev_at_epoch": 72273,
        "meta_bstar": 0.00019556105,
        "meta_mean_motion_dot": 9.25e-06,
        "meta_mean_motion_ddot": 0,
        "tle_line1": "1 38338U 12025B   25337.36492766  .00000925  00000+0  19556-3 0  9992",
        "tle_line2": "2 38338  98.3308 291.8845 0006025   8.3029 351.8270 14.61691922722738"
      },
      "geometry": {
        "type": "Point",
        "coordinates": [
          -74.84114080947047,
          39.50979934781937
        ]
      }
    }
  ]
}